#dP2020  6 28  0  0  0.00000000      97 __u+U IGS14 FIT  IAC
## 2112      0.00000000   900.00000000 59028 0.0000000000000
+  121   C01C02C03C04C05C06C07C08C09C10C11C12C13C14C16C19C20
+        C21C22C23C24C25C26C27C28C29C30C32C33C34C35C36C37C38
+        C39C40C43C44C45C46E01E02E03E04E05E07E08E09E11E12E13
+        E14E15E18E19E21E24E25E26E27E30E31E33E36G01G02G03G04
+        G05G06G07G08G09G10G11G12G13G14G15G16G17G18G19G20G21
+        G22G24G25G26G27G28G29G30G31G32J01J02J03J07R01R02R03
+        R04R05R07R08R09R11R12R13R14R15R16R17R18R19R20R21R23
+        R24R26  0  0  0  0  0  0  0  0  0  0  0  0  0  0  0
++         0  0  0  0  0  0  0  0  0  0  0  0  0  0  0  0  0
++         0  0  0  0  0  0  0  0  0  0  0  0  0  0  0  0  0
++         0  0  0  0  0  0  0  0  0  0  0  0  0  0  0  0  0
++         0  0  0  0  0  0  0  0  0  0  0  0  0  0  0  0  0
++         0  0  0  0  0  0  0  0  0  0  0  0  0  0  0  0  0
++         0  0  0  0  0  0  0  0  0  0  0  0  0  0  0  0  0
++         0  0  0  0  0  0  0  0  0  0  0  0  0  0  0  0  0
++         0  0  0  0  0  0  0  0  0  0  0  0  0  0  0  0  0
%c M  cc GPS ccc cccc cccc cccc cccc ccccc ccccc ccccc ccccc
%c cc cc ccc ccc cccc cccc cccc cccc ccccc ccccc ccccc ccccc
%f  1.2500000  1.025000000  0.00000000000  0.000000000000000
%f  0.0000000  0.000000000  0.00000000000  0.000000000000000
%i    0    0    0    0      0      0      0      0         0
%i    0    0    0    0      0      0      0      0         0
/* INFORMATION & ANALYSIS CENTER (IAC)            FINAL DATA
/* S/V CLOCKS ARE ALIGNED TO GNSS TIME                      
/* G:C1WC2W R:C1PC2P E:C1XC5X C:C2IC6I J:C1CC2S             
/* PCV:IGS14_2108 OL/AL:FES2004  NONE     YN ORB:CoN CLK:CoN
*  2020 06 28 11 30  0.00000000
PC01 -34320.050664  24446.898971   -641.849526   -376.495374
PC02   4393.701099  41916.792332   1441.806445    252.181263
PC03 -14812.851650  39491.356349    783.095732    845.308551
PC04      0.000000      0.000000      0.000000 999999.999999
PC05  21848.212308  36057.772890   1103.350226   -536.154691
PC06 -12732.715879  37914.184840  14434.333526    765.723505
PC07 -12181.284315  23149.324755 -32869.691134      9.735490
PC08 -24664.542000  27024.713070  20754.343336   -339.772914
PC09  -3445.548982  42209.091243  -1205.941284    640.273664
PC10   3952.428407  29088.978124 -29922.593811   -250.622009
PC11 -14615.792528  20745.232773 -11498.616782   -456.836619
PC12 -16260.606851   2383.435603 -22522.828581    414.610719
PC13 -10044.741656  27818.225705  30034.911527    514.486641
PC14 -12137.334540  10439.500253  22889.616877    593.147016
PC16 -10235.998134  39245.736199  11959.028491   -608.691606
PC19   3572.779327 -17670.019755 -21277.687209    458.205265
PC20  17931.393295  -2522.895663 -21202.746541   -845.630315
PC21 -22135.052550 -14768.114281   8476.921284   -586.258425
PC22 -13148.169462 -22936.304250  -8980.954349   -778.955847
PC23   6666.719751  14964.085595 -22581.256929   -848.239490
PC24 -26726.323284   7672.175134  -2263.453032   -779.605237
PC25 -13436.430846  16560.890735 -17990.907199   -667.410880
PC26 -23909.479299  -4057.605494  13779.420793    734.791743
PC27  13750.771104   8534.679600  22715.242964    355.167376
PC28   2239.853285  24172.330229  13755.070125   -206.425118
PC29   9560.282518 -26018.780545   3204.662813    248.599086
PC30  16786.593961 -12351.294175  18542.192347    338.590410
PC32  22217.390522  14597.704042  -8444.715358   -876.500863
PC33  -3625.962138  17641.966555  21319.517422   -806.032240
PC34 -16810.997299  12821.847527 -18235.511079   -853.015972
PC35  -2980.230373 -24175.354661 -13593.269775   -775.557019
PC36  14042.578406 -16210.385173  17878.150713   -855.711169
PC37  23443.241936   5023.466168 -14263.887437   -858.611190
PC38 -21464.569658  28845.618544  21902.103271     85.931972
PC39  -6710.782576  40246.359812  10841.205672     18.341393
PC40  -1965.870312  24264.960637 -34383.027071     56.596279
PC43  -9929.527548  25856.319557  -3510.293879   -258.470155
PC44 -14094.176536  -8269.184525 -22626.270938 999999.999999
PC45  -6681.824384 -14837.753059  22679.609474    166.655224
PC46  26576.746073  -8088.218461   2805.615320    762.686772
PE01    348.704213 -16629.690254  24486.817303   -887.094420
PE02   -235.282243  16645.522845 -24474.718367    143.555566
PE03   1795.363974  27904.418954   9690.074843   -314.746931
PE04 -14334.262016 -24425.857702   8628.058789   -554.967066
PE05 -11935.487811  15054.904949  22525.045354   -367.810048
PE07  18578.807674   6471.367494 -22099.552842   -401.705895
PE08  14527.023505  24213.477432  -8843.511572   6157.367946
PE09 -18501.987285  -6303.964440  22245.329449   6014.006270
PE11 -21370.946306   4190.467838 -20066.355607   3750.443542
PE12  -8484.505465 -14578.294347 -24325.068047   5732.973556
PE13  21205.935986  -4074.844470  20242.715565    401.927749
PE14   6997.186454 -23832.954937   8252.676772  -1065.368264
PE15   8647.131420  14343.491236  24408.355306    861.922478
PE18 -16129.222370  17955.663587 -19034.899397  -1167.239663
PE19   -340.684449 -27254.613322 -11534.369825     14.309074
PE21  20567.520747  -8829.773302  19366.419535   -607.096814
PE24 -29119.518289  -4614.036372  -2561.027651   5379.047514
PE25 -20690.499983   8740.954219 -19274.784121   -512.823250
PE26  21305.351997 -20210.102473   3725.819449   3021.539204
PE27  29151.434021   4282.547691   2835.393257    188.916700
PE30  20150.932959  15095.646764 -15574.377533   3790.280309
PE31 -20567.378826 -14822.840921  15293.028754   -473.031442
PE33   8992.947836 -24338.391922 -14238.161077   -465.563682
PE36 -21319.459022  20106.800075  -4189.964297    541.117881
PG01   9229.040712 -18852.649589 -16294.494448     18.005286
PG02 -22068.621992  14375.424856  -2570.460789   -479.088232
PG03   -831.769786 -16573.865855 -20829.834849   -223.113798
PG04    465.920603 -26498.555147  -1444.774991   -108.107787
PG05 -18547.169981   5527.667748  18135.423442    -15.550932
PG06 -22471.903607   3714.407786 -13645.981268   -295.473761
PG07  -9315.906913 -12472.156745  21845.701319   -314.857534
PG08   7113.453930 -22165.264018  12556.344699    -39.120072
PG09  -8290.191260 -23404.208539   9362.902609   -244.296924
PG10  24045.528730  11555.086950   -775.642038   -384.333598
PG11  11114.071271 -24160.435567  -3234.085803   -236.168418
PG12    -93.735773  16502.846926 -21080.439959    100.608147
PG13 -12949.035838  15518.391522  17062.745691     22.123394
PG14  15066.079522     88.790397 -21519.814031     -2.621674
PG15  -4915.326974  23137.504226  11376.871128   -221.198289
PG16  17044.789417  -4957.509165  19683.303576   -176.010133
PG17 -13387.024711 -10102.305466 -20188.077278    287.692738
PG18   8599.230144  12470.323198  21806.810342    232.398794
PG19 -14835.158063  -1417.378793 -22288.161462   -139.204232
PG20  19168.121341  15077.988428  10709.786812    527.419243
PG21  19031.994448   2576.886828  19000.414506     17.155171
PG22   7276.363417 -14019.098983 -21140.194279   -775.461830
PG24  -9903.479934  20197.913838 -14025.511503    -14.944835
PG25  10962.706050  18241.916969 -16290.726539     17.565934
PG26  24290.568056   2895.519689  10583.173203    233.625646
PG27  12445.923763 -12714.129158  19461.049073   -332.148371
PG28 -22954.939942 -12954.789142  -1934.110977    704.604421
PG29   3498.105618  25628.706855   5908.128280   -138.126464
PG30 -18593.690524  -4631.523271  18524.970613   -251.027868
PG31  23515.981226  -4488.600576 -12018.570824    -52.078398
PG32  14836.232887   8516.589655 -20269.485074    307.950681
PJ01 -25673.313518  22223.301636  30064.137388   -280.500219
PJ02 -33156.738151  15168.994186 -16698.773812     -0.811334
PJ03 -21067.039452  32656.292652 -11925.584828     -4.628731
PJ07 -25400.806932  33659.645993      9.272633     -0.006302
PR01   8714.150142  -6908.245080 -22950.458360     63.744939
PR02  -6314.117315 -21153.417212 -12688.074947    433.727795
PR03 -15294.238057 -19895.213837   4485.689003     17.571615
PR04 -15368.669197  -7449.364870  18977.081116     54.369245
PR05  -6818.080325   9215.288141  22803.647100     53.127924
PR07  15413.140670  19734.006573  -4931.901646    -37.974139
PR08  15428.453529   7473.561639 -18836.057541    -53.120405
PR09   3175.873259  11002.749605 -22772.431668    140.492495
PR11  25448.266678   -875.520115   -907.233505    -28.662438
PR12  19041.579464  -8052.418128  14981.170665    142.736823
PR13   1340.676384 -11007.464075  22957.401392    -40.546591
PR14 -17160.692255  -7501.610295  17341.608838     52.764472
PR15 -25443.042259    297.333846   1853.993173    106.914087
PR16 -18299.166734   8744.959737 -15411.733901     -4.395335
PR17  -4376.773321 -12877.909024 -21585.974502    336.780765
PR18 -12998.616618   3766.128382 -21626.510995     40.404997
PR19 -15173.443384  17589.774392 -10539.030735    -99.943755
PR20  -7941.717421  22499.558424   9080.525599   -415.384603
PR21   4926.215702  11966.163840  21970.282696   -134.450640
PR23  13312.946602 -21427.232222   3770.385598    315.119396
PR24   7175.032431 -22494.989320  -9659.144213      4.301670
PR26 -10051.239792  23035.052400   4280.990309   -391.566403
EOF
